[{"OBJECT_NAME":"STARLINK-36519","OBJECT_ID":"2026-008E","EPOCH":"2026-03-09T09:11:08.446560","MEAN_MOTION":15.27609513,"ECCENTRICITY":0.0001292,"INCLINATION":43.0015,"RA_OF_ASC_NODE":207.0985,"ARG_OF_PERICENTER":222.2698,"MEAN_ANOMALY":137.8054,"EPHEMERIS_TYPE":0,"CLASSIFICATION_TYPE":"U","NORAD_CAT_ID":67449,"ELEMENT_SET_NO":999,"REV_AT_EPOCH":952,"BSTAR":0.0011093725,"MEAN_MOTION_DOT":0.00030419,"MEAN_MOTION_DDOT":0},{"OBJECT_NAME":"ELECTRON KICK STAGE R\/B","OBJECT_ID":"2024-047B","EPOCH":"2026-03-09T21:11:54.433824","MEAN_MOTION":15.27307897,"ECCENTRICITY":0.00092426,"INCLINATION":97.6338,"RA_OF_ASC_NODE":46.9382,"ARG_OF_PERICENTER":20.6031,"MEAN_ANOMALY":339.5579,"EPHEMERIS_TYPE":0,"CLASSIFICATION_TYPE":"U","NORAD_CAT_ID":59225,"ELEMENT_SET_NO":999,"REV_AT_EPOCH":10999,"BSTAR":0.00091229405,"MEAN_MOTION_DOT":0.00024409,"MEAN_MOTION_DDOT":0}]
